NOAA 15                 
1 25338U 98030A   21027.47530992  .00000034  00000-0  32771-4 0  9993
2 25338  98.6977  57.1508 0009877 336.4564  23.6162 14.26010404181155
DMSP 5D-3 F15 (USA 147) 
1 25991U 99067A   21027.51233420 -.00000086  00000-0 -20400-4 0  9995
2 25991  98.9998   6.9171 0009834 179.0313 289.1041 14.16463655 92166
METEOSAT-8 (MSG-1)      
1 27509U 02040B   21027.23570427  .00000143  00000-0  00000+0 0  9998
2 27509   7.1191  53.1372 0000760 306.6815 253.1873  1.00268160 67520
DMSP 5D-3 F16 (USA 172) 
1 28054U 03048A   21027.54030309 -.00000068  00000-0 -12000-4 0  9993
2 28054  98.9390  12.1196 0006753 314.2115 154.8864 14.13647419891551
NOAA 18                 
1 28654U 05018A   21026.85493200  .00000083  00000-0  69226-4 0  9991
2 28654  99.0148  91.0351 0013574 324.4232  35.6033 14.12576126808457
METEOSAT-9 (MSG-2)      
1 28912U 05049B   21026.79743046  .00000025  00000-0  00000-0 0  9998
2 28912   4.9024  69.1617 0001448 259.3673  88.1654  1.00275209 55306
FORMOSAT-3 FM6          
1 29047U 06011A   21027.38283840  .00000219  00000-0  10195-3 0  9999
2 29047  71.9794  12.9247 0048955  33.3585 327.0620 14.28782333773316
FORMOSAT-3 FM1          
1 29048U 06011B   21027.12643149  .00000128  00000-0  66824-4 0  9994
2 29048  71.9665 284.0963 0043849 351.8910   8.1512 14.28750344775741
FORMOSAT-3 FM5          
1 29049U 06011C   21027.18539652  .00000117  00000-0  62373-4 0  9997
2 29049  72.0205  96.8995 0034387  15.6133 344.6056 14.28826937771544
FORMOSAT-3 FM3          
1 29050U 06011D   21027.48874098  .00000193  00000-0  50764-4 0  9993
2 29050  72.0141 219.4610 0051679 277.2331  82.2948 14.59009431789103
FORMOSAT-3 FM4          
1 29051U 06011E   21027.31986558  .00000029  00000-0  27421-4 0  9993
2 29051  72.0063 358.2435 0070581 258.0577 101.2641 14.28862981774150
FORMOSAT-3 FM2          
1 29052U 06011F   21027.16336661  .00000068  00000-0  42728-4 0  9991
2 29052  72.0342  73.4396 0041139 335.0207  24.8938 14.28968517772470
EWS-G1 (GOES 13)        
1 29155U 06018A   21026.82648461  .00000046  00000-0  00000-0 0  9997
2 29155   0.3872 103.6429 0006192 136.4514 245.2872  1.00274383 23644
METOP-A                 
1 29499U 06044A   21027.49602014  .00000022  00000-0  29394-4 0  9990
2 29499  98.4933  72.2481 0001025  67.3379  62.8262 14.21496590740714
DMSP 5D-3 F17 (USA 191) 
1 29522U 06050A   21027.51108063  .00000018  00000-0  32427-4 0  9998
2 29522  98.7915  46.4147 0008876 258.7354 101.2822 14.14034365734393
FENGYUN 3A              
1 32958U 08026A   21026.65138183 -.00000007  00000-0  16306-4 0  9997
2 32958  98.4326   7.1062 0009658  54.3493 305.8581 14.18645758656368
FENGYUN 2E              
1 33463U 08066A   21027.10127355 -.00000200  00000-0  00000+0 0  9997
2 33463   4.8090  67.7909 0003867 316.5625 225.7742  1.00271241 44366
NOAA 19                 
1 33591U 09005A   21027.51344837  .00000016  00000-0  33916-4 0  9995
2 33591  99.1925  44.6585 0014233 164.3234 195.8380 14.12450107617021
GOES 14                 
1 35491U 09033A   21026.63240333 -.00000083  00000-0  00000-0 0  9994
2 35491   0.0802 230.0778 0012067 358.5948  20.8769  1.00271602 42398
METEOR-M 1              
1 35865U 09049A   21027.51584985 -.00000003  00000-0  17258-4 0  9997
2 35865  98.4631  11.2938 0001190 251.7169 108.3880 14.22262744589763
DMSP 5D-3 F18 (USA 210) 
1 35951U 09057A   21027.46313271  .00000069  00000-0  59140-4 0  9991
2 35951  98.6664  16.0486 0012168  89.1381 271.1186 14.13328433581649
GOES 15                 
1 36411U 10008A   21026.68494500  .00000061  00000-0  00000-0 0  9998
2 36411   0.4153  98.7367 0002319 309.0269 197.2438  1.00281055 39945
COMS 1                  
1 36744U 10032A   21026.82229273 -.00000334  00000-0  00000-0 0  9997
2 36744   0.0375 120.6659 0001114 181.6522 248.1856  1.00271538 31366
FENGYUN 3B              
1 37214U 10059A   21027.52130382  .00000009  00000-0  28039-4 0  9993
2 37214  99.0701  18.9752 0016962 356.1088 162.4526 14.15973684529383
SUOMI NPP               
1 37849U 11061A   21027.48247119 -.00000022  00000-0  10398-4 0  9998
2 37849  98.7251 328.1336 0001096  58.0877  52.6454 14.19548823479407
FENGYUN 2F              
1 38049U 12002A   21027.53693029 -.00000351  00000-0  00000+0 0  9997
2 38049   2.5820  82.7900 0004101  27.3125 322.3009  1.00278778 33167
METEOSAT-10 (MSG-3)     
1 38552U 12035B   21026.79856453  .00000072  00000-0  00000-0 0  9991
2 38552   1.2326 357.1871 0000821   3.1194  62.6947  1.00269366 31135
METOP-B                 
1 38771U 12049A   21027.47010781  .00000013  00000-0  26005-4 0  9993
2 38771  98.7004  89.5444 0002471  83.2694   7.9741 14.21495939433843
FENGYUN 3C              
1 39260U 13052A   21027.36417230 -.00000013  00000-0  14587-4 0  9993
2 39260  98.5209  74.3963 0009992 294.7295  65.2842 14.15857173380307
METEOR-M 2              
1 40069U 14037A   21027.36662195 -.00000047  00000-0 -22234-5 0  9995
2 40069  98.4781  62.1342 0005620   4.5356 355.5877 14.20680029340001
HIMAWARI-8              
1 40267U 14060A   21026.82482258 -.00000266  00000-0  00000-0 0  9995
2 40267   0.0618 227.2999 0001463  87.1657 249.4278  1.00270774 23036
FENGYUN 2G              
1 40367U 14090A   21027.26729708 -.00000294  00000-0  00000+0 0  9992
2 40367   0.6852  93.1709 0002313 298.4269 290.7990  1.00284937 22319
METEOSAT-11 (MSG-4)     
1 40732U 15034A   21026.79681983  .00000008  00000-0  00000-0 0  9999
2 40732   0.3125 258.6630 0001131 356.8601 157.9592  1.00262982 20318
ELEKTRO-L 2             
1 41105U 15074A   21027.08103479 -.00000107  00000-0  00000+0 0  9990
2 41105   1.7369  94.3325 0001944 155.8407 251.1309  1.00272340 18798
HIMAWARI-9              
1 41836U 16064A   21027.39909736 -.00000266  00000-0  00000+0 0  9991
2 41836   0.0496 254.7152 0001226  89.8837  66.7105  1.00271942 15583
GOES 16                 
1 41866U 16071A   21027.42249497 -.00000240  00000-0  00000+0 0  9999
2 41866   0.0045 265.5649 0002094  66.2771 231.9517  1.00279422 15389
FENGYUN 4A              
1 41882U 16077A   21026.88729855 -.00000320  00000-0  00000-0 0  9993
2 41882   0.0601  78.4371 0004629 346.6936 125.3285  1.00274321 15259
CYGFM05                 
1 41884U 16078A   21027.25155539  .00002010  00000-0  10703-3 0  9991
2 41884  34.9566 109.5951 0016243 246.2337 113.6671 15.14863733228056
CYGFM04                 
1 41885U 16078B   21027.14559892  .00000618  00000-0  33640-4 0  9998
2 41885  34.9499 102.2309 0014639 256.8509 103.0569 15.15369613228119
CYGFM02                 
1 41886U 16078C   21027.46824318  .00000681  00000-0  36890-4 0  9992
2 41886  34.9591 102.1165 0015382 255.2589 104.6417 15.15369246228165
CYGFM01                 
1 41887U 16078D   21027.51187223  .00000669  00000-0  36972-4 0  9993
2 41887  34.9533 109.4647 0016686 248.5798 111.3133 15.14658539228077
CYGFM08                 
1 41888U 16078E   21027.24419320  .00000690  00000-0  37640-4 0  9997
2 41888  34.9505 105.9671 0015889 254.1974 105.6986 15.15073134228084
CYGFM06                 
1 41889U 16078F   21027.51375312  .00000705  00000-0  38173-4 0  9999
2 41889  34.9585 100.5249 0014350 255.6382 104.2737 15.15359814228166
CYGFM07                 
1 41890U 16078G   21027.49234953  .00000668  00000-0  36232-4 0  9995
2 41890  34.9524  99.6488 0014110 258.8317 101.0808 15.15359225228161
CYGFM03                 
1 41891U 16078H   21027.48880142  .00000667  00000-0  36213-4 0  9990
2 41891  34.9556  99.9869 0013605 257.4736 102.4454 15.15345834228164
FENGYUN 3D              
1 43010U 17072A   21027.40630550 -.00000015  00000-0  13722-4 0  9996
2 43010  98.7753 330.4298 0002012 124.3192 235.8170 14.19759389165975
NOAA 20                 
1 43013U 17073A   21027.42580098 -.00000002  00000-0  19934-4 0  9990
2 43013  98.7416 328.1243 0001360  81.8814 278.2517 14.19548801165433
GOES 17                 
1 43226U 18022A   21027.45219670  .00000107  00000-0  00000+0 0  9993
2 43226   0.0684 247.5408 0000789  77.6207 187.3120  1.00269179 10716
FENGYUN 2H              
1 43491U 18050A   21027.53038759 -.00000120  00000-0  00000+0 0  9990
2 43491   0.1400 247.2358 0002475 248.6198 261.4817  1.00270522  9798
METOP-C                 
1 43689U 18087A   21027.41931981  .00000012  00000-0  25284-4 0  9990
2 43689  98.7075  89.8915 0003405  75.1725 284.9829 14.21489327115412
GEO-KOMPSAT-2A          
1 43823U 18100A   21027.39656751 -.00000335  00000-0  00000+0 0  9995
2 43823   0.0199 247.0158 0002377  42.8659 108.0248  1.00267961  7946
IOD-1 GEMS              
1 44385U 98067QK  21026.98402066  .00097006  00000-0  56326-3 0  9997
2 44385  51.6359 278.3199 0004830 135.2675 224.8716 15.77721332 89519
METEOR-M2 2             
1 44387U 19038A   21027.42022009 -.00000028  00000-0  67736-5 0  9993
2 44387  98.6513 349.3694 0000789   5.3315 354.7874 14.23684967 81400
